STARLINK-3800           
1 52379U 22045BA  24215.50393399 -.00000434  00000+0 -91968-5 0  9994
2 52379  53.2165 291.6348 0001417  86.5624 273.5530 15.08835165127734
STARLINK-3793           
1 52380U 22045BB  24215.48278171 -.00002142  00000+0 -11654-3 0  9993
2 52380  53.2160 281.7567 0001224  79.6315 280.4816 15.08830622127861
STARLINK-3803           
1 52381U 22045BC  24215.49657337 -.00001802  00000+0 -95129-4 0  9992
2 52381  53.2172 291.6661 0001510  98.0400 262.0763 15.08842697127736
STARLINK-3799           
1 52382U 22045BD  24215.49290598 -.00000043  00000+0  15363-4 0  9992
2 52382  53.2158 291.6947 0001191  88.1645 271.9484 15.08831786127730
STARLINK-3811           
1 52383U 22045BE  24215.44966064 -.00001051  00000+0 -47967-4 0  9992
2 52383  53.2160 281.9045 0001276 112.8054 247.3073 15.08833801127863
STARLINK-3870           
1 52451U 22049A   24215.27577209  .00000196  00000+0  30420-4 0  9995
2 52451  53.2158 172.6577 0001450 101.2434 258.8721 15.08848374124045
STARLINK-3909           
1 52452U 22049B   24215.15431045  .00000317  00000+0  38026-4 0  9995
2 52452  53.2149 173.0772 0001407  88.4852 271.6301 15.08849940124025
STARLINK-3872           
1 52453U 22049C   24215.13593973 -.00000669  00000+0 -23926-4 0  9998
2 52453  53.2179 173.2866 0001489  80.0483 280.0677 15.08835448124021
STARLINK-3888           
1 52454U 22049D   24214.87465678  .00001378  00000+0  10470-3 0  9994
2 52454  53.2181 174.4611 0001736  86.3567 273.7624 15.08834536123828
STARLINK-3890           
1 52455U 22049E   24215.19945772  .00000764  00000+0  66083-4 0  9999
2 52455  53.2164 172.9991 0001453  74.8344 285.2809 15.08835090124038
STARLINK-3896           
1 52456U 22049F   24214.59961069 -.00000031  00000+0  16141-4 0  9998
2 52456  53.2172 175.6990 0001530 109.2426 250.8732 15.08840961123942
STARLINK-3899           
1 52457U 22049G   24215.19113458 -.00000436  00000+0 -92785-5 0  9996
2 52457  53.2168 173.0313 0001501  98.0320 262.0843 15.08840172124038
STARLINK-3898           
1 52458U 22049H   24214.85721085 -.00000449  00000+0 -10139-4 0  9996
2 52458  53.2165 174.5375 0001368  95.0130 265.1018 15.08840404123829
STARLINK-3856           
1 52459U 22049J   24215.17364529  .00002280  00000+0  16124-3 0  9991
2 52459  53.2173 163.1168 0001547  74.2610 285.8553 15.08853410124166
STARLINK-3865           
1 52460U 22049K   24215.16628322  .00000406  00000+0  43601-4 0  9995
2 52460  53.2165 163.1009 0001463  95.0450 265.0709 15.08843149124164
STARLINK-3900           
1 52461U 22049L   24215.10463960  .00001999  00000+0  14361-3 0  9993
2 52461  53.2169 153.4286 0001168  84.0237 276.0888 15.08854063124292
STARLINK-3903           
1 52462U 22049M   24215.16724579  .00009276  00000+0  59983-3 0  9991
2 52462  53.2150 163.1551 0001486  83.8847 276.2314 15.08858149124164
STARLINK-3885           
1 52463U 22049N   24215.10096130 -.00000104  00000+0  11526-4 0  9995
2 52463  53.2176 153.4434 0001498  91.1592 268.9571 15.08866853124295
STARLINK-3904           
1 52464U 22049P   24215.16997776 -.00000116  00000+0  10815-4 0  9991
2 52464  53.2177 163.1314 0001475  80.4927 279.6232 15.08838749124162
STARLINK-3863           
1 52465U 22049Q   24215.56097508 -.00001098  00000+0 -50931-4 0  9994
2 52465  53.2148 151.3796 0001223 109.6502 250.4623 15.08844766124367
STARLINK-3840           
1 52466U 22049R   24215.14895714  .00058317  00000+0  34100-2 0  9996
2 52466  53.2144 163.1245 0002781  98.5157 261.6151 15.11334445124166
STARLINK-3873           
1 52467U 22049S   24215.56004713 -.00000003  00000+0  17882-4 0  9994
2 52467  53.2155 161.3755 0001616  71.4748 288.6420 15.08847057124226
STARLINK-3864           
1 52468U 22049T   24215.54532994  .00000934  00000+0  76733-4 0  9992
2 52468  53.2155 161.4445 0001308  90.6582 269.4560 15.08839385124228
STARLINK-3828           
1 52469U 22049U   24215.55268378  .00000942  00000+0  77234-4 0  9992
2 52469  53.2165 161.4147 0001302  92.2556 267.8585 15.08848806124229
STARLINK-3859           
1 52470U 22049V   24215.14052555  .00001397  00000+0  10584-3 0  9996
2 52470  53.2167 163.2650 0001499  93.2805 266.8359 15.08844583124166
STARLINK-3862           
1 52471U 22049W   24215.54997948 -.00000349  00000+0 -38222-5 0  9994
2 52471  53.2168 161.4387 0001522  82.5792 277.5373 15.08829385124223
STARLINK-3881           
1 52472U 22049X   24215.26932288  .00001399  00000+0  10594-3 0  9994
2 52472  53.2163 162.6834 0001578 107.2977 252.8188 15.08848458124187
STARLINK-3879           
1 52473U 22049Y   24215.54164740  .00000811  00000+0  69055-4 0  9991
2 52473  53.2150 161.4582 0001424  89.7048 270.4107 15.08838748124227
STARLINK-3855           
1 52474U 22049Z   24214.82592528 -.00002043  00000+0 -11029-3 0  9999
2 52474  53.2153 154.6873 0001518 109.4156 250.7000 15.08839323124090
STARLINK-3882           
1 52475U 22049AA  24215.55640035 -.00000337  00000+0 -30839-5 0  9994
2 52475  53.2159 161.6198 0001383  87.6148 272.5002 15.08840918124224
STARLINK-3835           
1 52476U 22049AB  24214.84435196  .00000976  00000+0  79360-4 0  9994
2 52476  53.2151 154.8348 0001393  97.4262 262.6888 15.08846550125338
STARLINK-3860           
1 52477U 22049AC  24215.55728612 -.00000357  00000+0 -43446-5 0  9994
2 52477  53.2183 151.3928 0001593 105.9726 254.1442 15.08849416124360
STARLINK-3825           
1 52478U 22049AD  24215.26196408  .00002044  00000+0  14636-3 0  9995
2 52478  53.2177 162.7126 0001454  97.0081 263.1076 15.08862631124188
STARLINK-3878           
1 52479U 22049AE  24214.81393199  .00000593  00000+0  55365-4 0  9994
2 52479  53.2182 154.7332 0001558  97.9800 262.1369 15.08841825125332
STARLINK-3839           
1 52480U 22049AF  24214.59589294  .00000794  00000+0  67988-4 0  9991
2 52480  53.2173 165.7116 0001650  81.5560 278.5619 15.08845462124082
STARLINK-3842           
1 52481U 22049AG  24215.13316675  .00000755  00000+0  65493-4 0  9990
2 52481  53.2162 163.2969 0001397  91.2281 268.8872 15.08846524124168
STARLINK-3813           
1 52482U 22049AH  24214.87281186  .00000040  00000+0  20601-4 0  9998
2 52482  53.2185 154.4682 0001519  98.3662 261.7502 15.08841696124263
STARLINK-3875           
1 52483U 22049AJ  24215.14882111  .00000281  00000+0  35766-4 0  9990
2 52483  53.2163 153.2271 0001596  88.0228 272.0947 15.08833613124303
STARLINK-3887           
1 52484U 22049AK  24215.25461352  .00000221  00000+0  31960-4 0  9999
2 52484  53.2167 162.7518 0001445  93.5100 266.6057 15.08845375124185
STARLINK-3913           
1 52485U 22049AL  24215.14144782  .00000709  00000+0  62615-4 0  9995
2 52485  53.2173 153.2636 0001389  93.4309 266.6842 15.08848581124304
STARLINK-3918           
1 52486U 22049AM  24215.18100058  .00001901  00000+0  13742-3 0  9999
2 52486  53.2161 163.0834 0001293  96.2469 263.8671 15.08855480124173
STARLINK-3902           
1 52487U 22049AN  24215.54993441  .00001530  00000+0  11415-3 0  9999
2 52487  53.2165 151.5329 0001365  87.6287 272.4862 15.08855779124361
STARLINK-3892           
1 52488U 22049AP  24214.84613041  .00000393  00000+0  42767-4 0  9998
2 52488  53.2171 164.5899 0001485 101.7199 258.3960 15.08847399123964
STARLINK-3923           
1 52489U 22049AQ  24214.85349003  .00000918  00000+0  75763-4 0  9999
2 52489  53.2170 164.5571 0001365  87.3546 272.7602 15.08848161123964
STARLINK-3914           
1 52490U 22049AR  24215.52417191 -.00002795  00000+0 -15758-3 0  9994
2 52490  53.2155 151.5432 0001313  88.9357 271.1786 15.08835442124360
STARLINK-3908           
1 52491U 22049AS  24215.13408203  .00001292  00000+0  99238-4 0  9991
2 52491  53.2165 153.2968 0001327 100.4744 259.6397 15.08851103124305
STARLINK-3916           
1 52492U 22049AT  24215.11935687  .00001796  00000+0  13086-3 0  9996
2 52492  53.2166 153.3570 0001438  91.0258 269.0899 15.08856064124308
STARLINK-3883           
1 52493U 22049AU  24215.13040507  .00000588  00000+0  54994-4 0  9999
2 52493  53.2163 153.3142 0001543 115.1609 244.9543 15.08848460124305
STARLINK-3857           
1 52494U 22049AV  24214.84337095  .00002148  00000+0  15304-3 0  9993
2 52494  53.2175 154.5940 0001432 129.5960 230.5158 15.08837208124103
STARLINK-3905           
1 52495U 22049AW  24215.52049853  .00021527  00000+0  13662-2 0  9998
2 52495  53.2167 151.5593 0001315  94.9221 265.1922 15.08848742124367
STARLINK-3871           
1 52496U 22049AX  24215.54119445 -.00000259  00000+0  17990-5 0  9997
2 52496  53.2160 146.4662 0001670  76.9523 283.1656 15.08840250124270
STARLINK-3884           
1 52497U 22049AY  24215.11567980  .00001176  00000+0  91912-4 0  9995
2 52497  53.2165 153.3744 0001546  98.8349 261.2819 15.08854296124302
STARLINK-3925           
1 52498U 22049AZ  24215.48827969  .00002089  00000+0  14923-3 0  9992
2 52498  53.2173 141.7053 0001290  88.7551 271.3589 15.08854996124498
STARLINK-3894           
1 52499U 22049BA  24214.84707110 -.00002280  00000+0 -12523-3 0  9996
2 52499  53.2165 154.5810 0001578 105.7005 254.4161 15.08822875124103
STARLINK-3866           
1 52500U 22049BB  24215.08716916  .00000938  00000+0  77017-4 0  9996
2 52500  53.2166 143.5014 0001490  97.0099 263.1063 15.08842338124430
STARLINK-3907           
1 52501U 22049BC  24215.15615024  .00027626  00000+0  17466-2 0  9996
2 52501  53.2148 152.9938 0001405  91.2412 268.8741 15.08850391124311
STARLINK-3912           
1 52502U 22049BD  24215.08348276  .00001956  00000+0  14092-3 0  9992
2 52502  53.2155 143.5487 0001403  95.9223 264.1929 15.08854819124433
STARLINK-3861           
1 52503U 22049BE  24214.80747705  .00000926  00000+0  76244-4 0  9996
2 52503  53.2156 144.6419 0001150  96.5555 263.5568 15.08845524124239
STARLINK-3951           
1 52533U 22051A   24215.48371584  .00001348  00000+0  10276-3 0  9996
2 52533  53.2163 231.8685 0001343  94.1176 265.9970 15.08835630123319
